{"type": "Feature","bbox": [45.1409,-12.996,45.2346,-12.8712],"geometry": {"type": "MultiPolygon","coordinates": [[[[45.2001,-12.9318,3.4402],[45.1976,-12.9315,4.8633],[45.1971,-12.9329,0.0],[45.2026,-12.936,0.0],[45.2032,-12.9326,0.0],[45.2001,-12.9318,3.4402]]],
[[[45.1569,-12.9832,10.2879],[45.1574,-12.981,1.5564],[45.1657,-12.9754,2.3771],[45.1701,-12.9774,0.0],[45.174,-12.9849,0.0],[45.1749,-12.9949,3.2129],[45.1765,-12.996,3.2129],[45.1801,-12.9949,0.0],[45.1785,-12.9907,18.8941],[45.1807,-12.9854,5.486],[45.1849,-12.9843,10.1098],[45.194,-12.9885,0.0],[45.1951,-12.9849,17.4307],[45.2012,-12.9812,8.2928],[45.2015,-12.9785,0.0],[45.2049,-12.9754,23.2197],[45.2046,-12.9737,2.2926],[45.2026,-12.9735,0.0],[45.1946,-12.9751,6.5055],[45.1904,-12.9699,1.5876],[45.1849,-12.9699,17.977],[45.1779,-12.9649,12.2474],[45.1771,-12.9582,0.0],[45.171,-12.9521,0.0],[45.1693,-12.9465,4.8997],[45.171,-12.9435,0.0],[45.1735,-12.9426,2.2883],[45.181,-12.9449,0.0],[45.1801,-12.9387,0.0],[45.1763,-12.9329,9.728],[45.1804,-12.926,6.9856],[45.1854,-12.9254,0.0],[45.1846,-12.9207,9.8544],[45.1857,-12.9182,0.8931],[45.1932,-12.9174,11.5517],[45.1982,-12.9201,0.0],[45.2088,-12.9221,0.0],[45.2079,-12.9199,0.0],[45.2046,-12.9196,7.6999],[45.1988,-12.914,0.4607],[45.1999,-12.9096,0.0],[45.1976,-12.9068,0.0],[45.1974,-12.9012,0.0],[45.1999,-12.8957,5.6412],[45.2093,-12.8929,12.7867],[45.2146,-12.8871,2.8062],[45.2176,-12.8868,0.0],[45.219,-12.8837,0.0],[45.2165,-12.8829,0.0],[45.2165,-12.881,0.0],[45.2193,-12.8757,19.3212],[45.2218,-12.876,2.3452],[45.2224,-12.8712,0.0],[45.1933,-12.8854,272.9431],[45.179,-12.8868,292.7458],[45.1627,-12.88,599.6957],[45.1667,-12.9116,86.9753],[45.1588,-12.9534,246.996],[45.1552,-12.9634,33.7273],[45.1409,-12.9656,353.1168],[45.1448,-12.9782,174.9267],[45.1569,-12.9832,10.2879]]],
[[[45.2329,-12.8949,2.2213],[45.2301,-12.8946,0.0],[45.2287,-12.8988,0.0],[45.2313,-12.9024,0.8421],[45.2335,-12.9021,0.0],[45.2346,-12.8996,0.0],[45.2329,-12.8949,2.2213]]]]}
,"properties": {"GID_1": "MYT.3_1","GID_0": "MYT","country": "Mayotte","province": "Bandrele","VARNAME_1": "NA","NL_NAME_1": "NA","TYPE_1": "Chef-lieucanton","ENGTYPE_1": "Commune","CC_1": "03","HASC_1": "NA","ISO_1": "-","name": "Bandrele.province","area_km2": 38.3326,"hist_schema_id": "Elevation0-9000","hist_area_km2": {"0": 5.49655,"25": 5.62061,"50": 5.26935,"75": 5.10403,"100": 3.69896,"125": 3.20301,"150": 2.99637,"175": 2.19046,"200": 1.7152,"225": 0.88865,"250": 0.59934,"275": 0.47533,"300": 0.186,"325": 0.24801,"350": 0.16535,"375": 0.08267,"400": 0.08267,"425": 0.08267,"450": 0.04134,"475": 0.10334,"500": 0.04134,"525": 0.02067,"575": 0.02067}}}