{"type": "Feature","bbox": [45.1195,-12.9656,45.1667,-12.8694],"geometry": {"type": "MultiPolygon","coordinates": [[[[45.1421,-12.9171,2.9745],[45.139,-12.9226,0.0],[45.1446,-12.9204,0.0],[45.1446,-12.9187,0.0],[45.1421,-12.9171,2.9745]]],
[[[45.1667,-12.9116,86.9753],[45.1627,-12.88,599.6957],[45.154,-12.874,352.0415],[45.1384,-12.8694,459.4048],[45.1322,-12.889,5.9906],[45.1363,-12.8901,3.7212],[45.1379,-12.901,0.8422],[45.1418,-12.9024,1.1424],[45.1421,-12.9062,0.9364],[45.1465,-12.9107,1.6894],[45.1465,-12.9154,0.5677],[45.1485,-12.9162,4.7838],[45.1485,-12.9221,0.6346],[45.1471,-12.9232,0.0],[45.1482,-12.9293,3.3857],[45.1437,-12.934,0.0],[45.1376,-12.9351,0.4292],[45.131,-12.9349,5.7864],[45.1265,-12.9323,0.0],[45.1195,-12.9439,232.8629],[45.1409,-12.9656,353.1168],[45.1552,-12.9634,33.7273],[45.1588,-12.9534,246.996],[45.1667,-12.9116,86.9753]]]]}
,"properties": {"GID_1": "MYT.6_1","GID_0": "MYT","country": "Mayotte","province": "Chirongui","VARNAME_1": "NA","NL_NAME_1": "NA","TYPE_1": "Chef-lieucanton","ENGTYPE_1": "Commune","CC_1": "06","HASC_1": "NA","ISO_1": "NA","name": "Chirongui.province","area_km2": 28.70435,"hist_schema_id": "Elevation0-9000","hist_area_km2": {"0": 5.06307,"25": 4.0918,"50": 3.24453,"75": 2.3972,"100": 2.08722,"125": 1.85984,"150": 1.59119,"175": 1.61183,"200": 1.44654,"225": 0.9506,"250": 1.07458,"275": 0.64064,"300": 0.57865,"325": 0.59931,"350": 0.43401,"375": 0.28932,"400": 0.20668,"425": 0.16533,"450": 0.08267,"475": 0.12401,"500": 0.04133,"525": 0.02066,"550": 0.04134,"575": 0.02067,"600": 0.02067,"625": 0.02067}}}