{"type": "Feature","bbox": [45.0929,-12.81,45.1731,-12.7539],"geometry": {"type": "MultiPolygon","coordinates": [[[[45.126,-12.7539,152.7085],[45.1017,-12.7776,20.9097],[45.1004,-12.7804,0.0],[45.0929,-12.7835,0.0],[45.0962,-12.7879,1.0935],[45.0971,-12.7926,8.5148],[45.1076,-12.7937,0.0],[45.1057,-12.7963,58.9015],[45.1007,-12.7968,37.7576],[45.0996,-12.8016,0.0],[45.1325,-12.81,103.7405],[45.1526,-12.804,407.0142],[45.1713,-12.7739,416.616],[45.1731,-12.7635,457.186],[45.1586,-12.762,217.8034],[45.126,-12.7539,152.7085]]]]}
,"properties": {"GID_1": "MYT.17_1","GID_0": "MYT","country": "Mayotte","province": "Tsingoni","VARNAME_1": "NA","NL_NAME_1": "NA","TYPE_1": "Chef-lieucanton","ENGTYPE_1": "Commune","CC_1": "17","HASC_1": "NA","ISO_1": "NA","name": "Tsingoni.province","area_km2": 34.73697,"hist_schema_id": "Elevation0-9000","hist_area_km2": {"0": 0.68231,"25": 1.13718,"50": 1.88152,"75": 3.65969,"100": 5.95483,"125": 6.36845,"150": 3.16365,"175": 3.14298,"200": 2.15042,"225": 1.6128,"250": 1.24062,"275": 1.03383,"300": 1.19924,"325": 0.82708,"350": 0.31016,"375": 0.20677,"400": 0.12406,"425": 0.04136}}}