{"type":"Feature","properties":{"ISO3166-1-Alpha-3":"FRA","country":"France","fill":"#F0F","id":"4602","name":"Mayotte"},
"geometry":{"type": "MultiPolygon","coordinates": [[[[45.28256,-12.80486,4.2738],[45.28842,-12.78834,122.071],[45.29086,-12.77402,23.9283],[45.28932,-12.75986,0.0],[45.28256,-12.74342,0.0],[45.27711,-12.74749,0.0],[45.26222,-12.76336,0.0],[45.27573,-12.80486,0.0],[45.28256,-12.80486,4.2738]]],
[[[45.09018,-12.66326,0.0],[45.09278,-12.66188,38.1819],[45.09718,-12.66082,133.2461],[45.09596,-12.65651,0.0],[45.09474,-12.65358,0.0],[45.09083,-12.64723,0.0],[45.04249,-12.69842,0.0],[45.04298,-12.71396,0.0],[45.04518,-12.72519,0.0],[45.04949,-12.73431,0.0],[45.05665,-12.74342,60.7514],[45.06715,-12.7501,124.709],[45.07838,-12.75359,78.6529],[45.08717,-12.7597,22.1831],[45.09083,-12.77386,0.0],[45.09425,-12.80283,0.0],[45.09864,-12.81748,0.0],[45.1045,-12.82594,21.7269],[45.1045,-12.83278,89.4091],[45.09799,-12.83343,0.0],[45.08399,-12.83904,0.0],[45.11329,-12.86338,23.2889],[45.12387,-12.8751,61.1562],[45.13185,-12.88738,20.3466],[45.13649,-12.9039,0.0],[45.13413,-12.91692,0.0],[45.12477,-12.92148,0.0],[45.10792,-12.91172,0.0],[45.0901,-12.89105,0.0],[45.08399,-12.88738,0.0],[45.07293,-12.88836,0.0],[45.06528,-12.89316,0.0],[45.06251,-12.89853,0.0],[45.08123,-12.9083,31.7636],[45.09018,-12.924,5.4326],[45.08839,-12.94036,0.0],[45.07032,-12.94891,0.0],[45.07032,-12.95501,0.0],[45.08497,-12.95371,0.0],[45.09449,-12.95818,181.3273],[45.09848,-12.96787,0.0],[45.09718,-12.98235,0.0],[45.1067,-12.97812,0.0],[45.11329,-12.98105,67.7584],[45.12062,-12.98626,0.0],[45.13185,-12.98919,23.0102],[45.1443,-12.98577,172.0922],[45.15309,-12.97967,49.5623],[45.15992,-12.97861,1.8886],[45.16586,-12.98919,0.0],[45.17302,-12.98504,0.0],[45.17807,-12.98105,100.8121],[45.1823,-12.97576,169.8873],[45.18637,-12.96885,0.0],[45.16822,-12.94427,11.4137],[45.1753,-12.924,56.3765],[45.19166,-12.90496,18.0002],[45.20069,-12.88397,262.019],[45.20436,-12.87851,160.0358],[45.21095,-12.86533,32.8876],[45.21315,-12.85182,0.0],[45.19516,-12.84051,0.0],[45.18873,-12.82879,37.3622],[45.18816,-12.81707,196.9721],[45.19695,-12.8117,53.0027],[45.22055,-12.77752,86.8782],[45.22495,-12.75954,66.357],[45.22478,-12.7457,13.1791],[45.21762,-12.73406,0.0],[45.20069,-12.72291,0.0],[45.18377,-12.71795,0.0],[45.1526,-12.71819,0.0],[45.13868,-12.71494,0.0],[45.12892,-12.70745,0.0],[45.11061,-12.6858,0.0],[45.09718,-12.67449,13.9624],[45.09498,-12.67205,0.0],[45.09352,-12.66904,0.0],[45.09051,-12.66709,7.808],[45.08399,-12.66766,0.0],[45.09018,-12.66326,0.0]]]]}}