{"type":"Feature","properties":{"GID_1":"MYT.14_1","GID_0":"MYT","country":"Mayotte","province":"Ouangani","VARNAME_1":"NA","NL_NAME_1":"NA","TYPE_1":"Chef-lieucanton","ENGTYPE_1":"Commune","CC_1":"14","HASC_1":"NA","ISO_1":"-","name":"Ouangani.province"},
"geometry":{"type": "MultiPolygon","coordinates": [[[[45.1216,-12.8399,12.537],[45.1294,-12.8638,399.1255],[45.1384,-12.8694,459.4048],[45.154,-12.874,352.0415],[45.1453,-12.8373,100.2738],[45.1393,-12.8339,91.8649],[45.1547,-12.8199,315.7725],[45.1526,-12.804,407.0142],[45.1325,-12.81,103.7405],[45.1223,-12.8077,77.5298],[45.1257,-12.8307,133.1059],[45.1216,-12.8399,12.537]]]]}}