{"type": "Feature","bbox": [45.2703,-12.8185,45.2971,-12.7844],"geometry": {"type": "MultiPolygon","coordinates": [[[[45.2703,-12.7932,0.0],[45.2726,-12.7961,3.7912],[45.2729,-12.7999,0.0],[45.2755,-12.801,4.8612],[45.2776,-12.8045,2.0781],[45.279,-12.8132,0.0],[45.2837,-12.8146,0.0],[45.2857,-12.8185,0.0],[45.2882,-12.8179,0.0],[45.2851,-12.8115,0.9663],[45.2857,-12.8043,1.3236],[45.2899,-12.7999,0.0],[45.2938,-12.7996,0.0],[45.2971,-12.7963,0.0],[45.2957,-12.7907,27.5244],[45.2971,-12.7844,4.4637],[45.2703,-12.7932,0.0]]]]}
,"properties": {"GID_1": "MYT.15_1","GID_0": "MYT","country": "Mayotte","province": "Pamandzi","VARNAME_1": "NA","NL_NAME_1": "NA","TYPE_1": "Chef-lieucanton","ENGTYPE_1": "Commune","CC_1": "15","HASC_1": "NA","ISO_1": "-","name": "Pamandzi.province","area_km2": 4.796707,"hist_schema_id": "Elevation0-9000","hist_area_km2": {"0": 1.902093,"25": 1.116488,"50": 0.454869,"75": 0.372166,"100": 0.351491,"125": 0.206759,"150": 0.248111,"175": 0.082703,"200": 0.062028}}}