{"type":"Feature","properties":{"GID_1":"MYT.11_1","GID_0":"MYT","country":"Mayotte","province":"M'tsangamouji","VARNAME_1":"NA","NL_NAME_1":"NA","TYPE_1":"Chef-lieucanton","ENGTYPE_1":"Commune","CC_1":"13","HASC_1":"NA","ISO_1":"NA","name":"M'tsangamouji.province"},
"geometry":{"type": "MultiPolygon","coordinates": [[[[45.0424,-12.7472,0.0],[45.046,-12.7515,0.0],[45.0493,-12.7518,19.9297],[45.0513,-12.7571,0.0],[45.0554,-12.7524,0.0],[45.0615,-12.7518,3.7792],[45.0646,-12.7576,0.0],[45.0687,-12.759,9.6017],[45.0726,-12.7626,1.2317],[45.0735,-12.766,0.0],[45.0765,-12.7671,1.7418],[45.0829,-12.7649,0.0],[45.0907,-12.7685,47.2136],[45.0918,-12.7715,0.0],[45.0954,-12.7707,4.3],[45.0982,-12.7662,11.279],[45.1007,-12.7665,4.4383],[45.1001,-12.769,0.0],[45.1026,-12.7724,0.0],[45.1007,-12.7732,16.3142],[45.1004,-12.7793,0.0],[45.126,-12.7539,152.7085],[45.1018,-12.7403,161.9144],[45.0951,-12.7324,245.4565],[45.0676,-12.7353,251.0231],[45.0424,-12.7472,0.0]]]]}}