{"type":"Feature","properties":{"GID_1":"MYT.9_1","GID_0":"MYT","country":"Mayotte","province":"Kani-Keli","VARNAME_1":"NA","NL_NAME_1":"NA","TYPE_1":"Chef-lieucanton","ENGTYPE_1":"Commune","CC_1":"09","HASC_1":"NA","ISO_1":"-","name":"Kani-Keli.province"},
"geometry":{"type": "MultiPolygon","coordinates": [[[[45.139,-13.0018,5.095],[45.1393,-12.9996,0.0],[45.1382,-12.9996,0.0],[45.136,-13.004,13.6051],[45.1376,-13.0063,0.0],[45.1385,-13.006,0.0],[45.139,-13.0018,5.095]]],
[[[45.1448,-12.9782,174.9267],[45.1409,-12.9656,353.1168],[45.1195,-12.9439,232.8629],[45.106,-12.948,142.2699],[45.0933,-12.9599,186.9424],[45.0793,-12.9617,8.1611],[45.0854,-12.9624,8.0925],[45.0901,-12.9671,0.0],[45.0932,-12.9676,0.0],[45.101,-12.9649,0.0],[45.104,-12.9596,0.0],[45.1087,-12.9615,0.0],[45.1099,-12.9679,3.7329],[45.1057,-12.9743,0.0],[45.1076,-12.9821,0.0],[45.1049,-12.9868,11.8211],[45.1082,-12.9943,0.0],[45.1099,-12.9943,0.0],[45.1118,-12.986,1.9438],[45.1146,-12.9824,21.4572],[45.1174,-12.9818,0.0],[45.1251,-12.9846,0.0],[45.1243,-12.991,0.0],[45.1263,-12.9965,0.0],[45.1318,-12.9943,0.0],[45.1338,-12.9912,3.5923],[45.1374,-12.9915,0.0],[45.1421,-13.001,0.0],[45.1432,-12.9999,0.0],[45.1507,-13.0004,0.0],[45.1585,-12.9896,0.0],[45.1579,-12.9832,10.2879],[45.1448,-12.9782,174.9267]]]]}}