{"type": "Feature","bbox": [45.2485,-12.7929,45.2999,-12.7485],"geometry": {"type": "MultiPolygon","coordinates": [[[[45.2701,-12.7929,15.6216],[45.2965,-12.7841,4.4637],[45.2999,-12.7854,0.2382],[45.2979,-12.7771,8.2316],[45.294,-12.7754,17.2817],[45.2938,-12.7679,0.0],[45.2857,-12.7582,2.169],[45.2835,-12.7585,0.0],[45.2785,-12.7671,1.4268],[45.2668,-12.7782,0.0],[45.2643,-12.7785,0.0],[45.2637,-12.7751,0.0],[45.2601,-12.7815,0.0],[45.2571,-12.7799,0.0],[45.2538,-12.7807,0.0],[45.2535,-12.7837,0.0],[45.259,-12.7851,0.0],[45.2613,-12.7893,0.0],[45.2651,-12.7893,0.0],[45.2701,-12.7929,15.6216]]],
[[[45.2526,-12.7693,0.0],[45.2499,-12.771,3.3705],[45.2501,-12.7729,10.3995],[45.2532,-12.7712,0.0],[45.2526,-12.7693,0.0]]],
[[[45.2501,-12.7576,0.0],[45.2485,-12.7582,0.0],[45.2518,-12.759,0.0],[45.2518,-12.7579,0.0],[45.2501,-12.7576,0.0]]],
[[[45.2707,-12.7487,0.5391],[45.2693,-12.7485,0.0],[45.2685,-12.7507,0.2909],[45.2704,-12.7501,0.0],[45.2707,-12.7487,0.5391]]]]}
,"properties": {"GID_1": "MYT.8_1","GID_0": "MYT","country": "Mayotte","province": "Dzaoudzi","VARNAME_1": "NA","NL_NAME_1": "NA","TYPE_1": "Préfecturederégion","ENGTYPE_1": "Commune","CC_1": "08","HASC_1": "NA","ISO_1": "NA","name": "Dzaoudzi.province","area_km2": 9.201312,"hist_schema_id": "Elevation0-9000","hist_area_km2": {"0": 4.321523,"25": 2.9775,"50": 1.075212,"75": 0.475571,"100": 0.310151,"125": 0.041354}}}