{"type":"Feature","properties":{"GID_1":"MYT.13_1","GID_0":"MYT","country":"Mayotte","province":"Mtsamboro","VARNAME_1":"NA","NL_NAME_1":"NA","TYPE_1":"Chef-lieucanton","ENGTYPE_1":"Commune","CC_1":"12","HASC_1":"NA","ISO_1":"NA","name":"Mtsamboro.province"},
"geometry":{"type": "MultiPolygon","coordinates": [[[[45.0606,-12.7118,301.4002],[45.0964,-12.7156,131.3543],[45.0969,-12.7087,104.6967],[45.0893,-12.6891,322.6103],[45.0958,-12.6727,0.0],[45.0904,-12.6718,6.9278],[45.089,-12.669,9.253],[45.0999,-12.6635,8.3993],[45.1063,-12.6629,1.1125],[45.1071,-12.661,0.0],[45.1029,-12.6599,0.0],[45.1032,-12.6557,0.0],[45.1074,-12.6535,0.0],[45.1051,-12.6499,0.0],[45.0982,-12.6582,32.1246],[45.0924,-12.6568,0.0],[45.0929,-12.6632,71.1027],[45.0857,-12.666,0.0],[45.0851,-12.6696,33.4179],[45.0821,-12.6712,6.4365],[45.0826,-12.6787,29.1578],[45.0796,-12.6821,0.0],[45.0657,-12.6815,22.5888],[45.0676,-12.6843,0.0],[45.0701,-12.684,13.0914],[45.0729,-12.6868,0.0],[45.0713,-12.6932,0.0],[45.0701,-12.6943,0.0],[45.0671,-12.6935,0.0],[45.0682,-12.6974,2.5158],[45.0665,-12.6996,24.659],[45.0563,-12.701,0.0],[45.051,-12.6996,0.0],[45.0606,-12.7118,301.4002]]],
[[[45.0607,-12.6751,0.0],[45.0568,-12.6751,1.911],[45.0546,-12.6771,0.0],[45.0574,-12.6782,0.0],[45.0599,-12.6774,0.0],[45.0607,-12.6751,0.0]]],
[[[45.0496,-12.671,0.0],[45.046,-12.671,0.0],[45.0457,-12.6724,0.0],[45.0518,-12.6762,0.0],[45.0521,-12.6749,0.0],[45.0496,-12.671,0.0]]],
[[[45.0276,-12.636,0.0],[45.0251,-12.6368,7.989],[45.0218,-12.6424,27.5236],[45.0179,-12.644,0.0],[45.0182,-12.6476,0.0],[45.0246,-12.6471,6.6699],[45.0296,-12.6507,13.7994],[45.0296,-12.6532,58.4379],[45.026,-12.6565,0.0],[45.0262,-12.6587,0.0],[45.0282,-12.6582,0.0],[45.029,-12.6557,12.4509],[45.0332,-12.6568,0.0],[45.0365,-12.651,50.6347],[45.0429,-12.6476,2.7901],[45.0429,-12.6462,0.0],[45.039,-12.6457,0.0],[45.0371,-12.6426,0.0],[45.0343,-12.6415,50.0998],[45.0335,-12.639,0.0],[45.0276,-12.636,0.0]]]]}}