{"type":"Feature","properties":{"GID_1":"MYT.1_1","GID_0":"MYT","country":"Mayotte","province":"Acoua","VARNAME_1":"NA","NL_NAME_1":"NA","TYPE_1":"Chef-lieucanton","ENGTYPE_1":"Commune","CC_1":"01","HASC_1":"NA","ISO_1":"NA","name":"Acoua.province"},
"geometry":{"type": "MultiPolygon","coordinates": [[[[45.0424,-12.7472,0.0],[45.0676,-12.7353,251.0231],[45.0951,-12.7324,245.4565],[45.0964,-12.7156,131.3543],[45.0606,-12.7118,301.4002],[45.0513,-12.7006,24.0129],[45.0488,-12.7035,0.0],[45.0513,-12.7079,44.0155],[45.0499,-12.7121,23.8796],[45.0479,-12.7129,0.0],[45.0471,-12.7165,64.4495],[45.0426,-12.7212,0.0],[45.0393,-12.7215,15.9019],[45.0393,-12.7232,2.0246],[45.054,-12.7238,5.1472],[45.0568,-12.726,3.2806],[45.0571,-12.7285,3.0069],[45.051,-12.7379,0.0],[45.0454,-12.7396,2.3329],[45.0457,-12.741,2.3329],[45.0421,-12.744,0.0],[45.0424,-12.7472,0.0]]]]}}