{"type": "Feature","bbox": [45.0893,-12.762,45.1586,-12.6721],"geometry": {"type": "MultiPolygon","coordinates": [[[[45.0964,-12.7156,131.3543],[45.0951,-12.7324,245.4565],[45.1018,-12.7403,161.9144],[45.126,-12.7539,152.7085],[45.1586,-12.762,217.8034],[45.1451,-12.7274,0.2234],[45.1349,-12.7268,2.4706],[45.1354,-12.7246,4.1234],[45.1318,-12.7226,0.8724],[45.1304,-12.7154,0.3771],[45.1246,-12.7107,5.0685],[45.1251,-12.7046,2.1783],[45.1282,-12.7035,8.8311],[45.131,-12.7046,0.0],[45.131,-12.7001,4.7793],[45.1271,-12.7007,0.0],[45.1143,-12.6951,24.0247],[45.1118,-12.6907,0.0],[45.1138,-12.6885,2.0368],[45.1126,-12.686,0.0],[45.1096,-12.6854,0.0],[45.1087,-12.6826,0.0],[45.1026,-12.6818,2.6345],[45.1026,-12.6796,1.2833],[45.1057,-12.676,0.0],[45.1024,-12.6765,35.8704],[45.0982,-12.6749,37.8319],[45.0971,-12.6721,0.0],[45.0944,-12.6721,6.0417],[45.0958,-12.6727,0.0],[45.0893,-12.6891,322.6103],[45.0969,-12.7087,104.6967],[45.0964,-12.7156,131.3543]]],
[[[45.1307,-12.6887,0.0],[45.1279,-12.6885,1.9436],[45.1276,-12.6899,0.0],[45.1304,-12.6901,0.0],[45.1307,-12.6887,0.0]]],
[[[45.1143,-12.6729,0.0],[45.1107,-12.6746,0.0],[45.111,-12.6768,0.0],[45.1185,-12.6776,0.0],[45.1185,-12.6743,0.0],[45.1143,-12.6729,0.0]]]]}
,"properties": {"GID_1": "MYT.2_1","GID_0": "MYT","country": "Mayotte","province": "Bandraboua","VARNAME_1": "NA","NL_NAME_1": "NA","TYPE_1": "Chef-lieucanton","ENGTYPE_1": "Commune","CC_1": "02","HASC_1": "NA","ISO_1": "-","name": "Bandraboua.province","area_km2": 33.09069,"hist_schema_id": "Elevation0-9000","hist_area_km2": {"0": 3.70215,"25": 3.74342,"50": 4.75678,"75": 5.25304,"100": 5.58391,"125": 4.13622,"150": 2.2749,"175": 1.03413,"200": 0.53776,"225": 0.4964,"250": 0.53777,"275": 0.393,"300": 0.28958,"325": 0.18616,"350": 0.08274,"375": 0.08274}}}