{"type": "Feature","bbox": [45.1526,-12.8222,45.241,-12.7539],"geometry": {"type": "MultiPolygon","coordinates": [[[[45.2351,-12.8043,0.0],[45.2304,-12.8074,28.5129],[45.2318,-12.8112,18.5402],[45.2299,-12.8143,0.0],[45.2318,-12.8146,0.0],[45.2326,-12.8176,5.8493],[45.2371,-12.8174,0.0],[45.241,-12.8126,0.0],[45.2404,-12.8099,19.8559],[45.2351,-12.8043,0.0]]],
[[[45.1979,-12.8222,4.6992],[45.2046,-12.8201,2.3187],[45.2043,-12.8174,13.7131],[45.2079,-12.8096,0.0],[45.2107,-12.8082,0.0],[45.2129,-12.8043,2.6019],[45.2171,-12.8024,0.0],[45.2188,-12.7926,4.896],[45.2224,-12.7918,0.0],[45.2254,-12.7882,0.6384],[45.2326,-12.7849,0.0],[45.2351,-12.7865,0.0],[45.2385,-12.7857,0.0],[45.2385,-12.781,0.0],[45.2337,-12.7787,0.0],[45.2318,-12.7749,3.5987],[45.2357,-12.7718,0.0],[45.2368,-12.7646,0.0],[45.2404,-12.7626,32.2546],[45.2376,-12.7539,6.5519],[45.1985,-12.7653,317.0251],[45.1731,-12.7635,457.186],[45.1713,-12.7739,416.616],[45.1526,-12.804,407.0142],[45.1547,-12.8199,315.7725],[45.1979,-12.8222,4.6992]]]]}
,"properties": {"GID_1": "MYT.12_1","GID_0": "MYT","country": "Mayotte","province": "Mamoudzou","VARNAME_1": "NA","NL_NAME_1": "NA","TYPE_1": "Sous-préfecture","ENGTYPE_1": "Commune","CC_1": "11","HASC_1": "NA","ISO_1": "-","name": "Mamoudzou.province","area_km2": 45.36338,"hist_schema_id": "Elevation0-9000","hist_area_km2": {"0": 4.96234,"25": 5.29317,"50": 3.37018,"75": 2.89463,"100": 2.83261,"125": 2.17098,"150": 2.81194,"175": 2.936,"200": 3.20477,"225": 3.22545,"250": 2.17094,"275": 2.21228,"300": 1.69541,"325": 1.77814,"350": 1.19921,"375": 0.68232,"400": 0.51692,"425": 0.41354,"450": 0.45491,"475": 0.24814,"500": 0.16542,"525": 0.08271,"550": 0.04136}}}