{"type":"Feature","properties":{"GID_1":"MYT.4_1","GID_0":"MYT","country":"Mayotte","province":"Boueni","VARNAME_1":"NA","NL_NAME_1":"NA","TYPE_1":"Chef-lieucanton","ENGTYPE_1":"Commune","CC_1":"04","HASC_1":"NA","ISO_1":"NA","name":"Boueni.province"},
"geometry":{"type": "MultiPolygon","coordinates": [[[[45.0818,-12.9626,26.6982],[45.0793,-12.9617,8.1611],[45.0933,-12.9599,186.9424],[45.106,-12.948,142.2699],[45.1195,-12.9439,232.8629],[45.1264,-12.9336,4.8344],[45.1246,-12.9285,1.8424],[45.1193,-12.9279,0.0],[45.1157,-12.9249,0.0],[45.1132,-12.9254,4.3443],[45.1129,-12.9235,0.0],[45.1063,-12.9232,12.1556],[45.1065,-12.9213,5.0217],[45.1037,-12.9196,5.4429],[45.1024,-12.916,4.9703],[45.1037,-12.9049,0.0],[45.0999,-12.8974,0.0],[45.0843,-12.8971,0.0],[45.0704,-12.8993,0.0],[45.0704,-12.9024,0.0],[45.0771,-12.9049,3.4491],[45.0782,-12.9121,3.1593],[45.0829,-12.9226,5.5348],[45.0857,-12.9226,8.3507],[45.0887,-12.9251,1.246],[45.0863,-12.9301,0.0],[45.0904,-12.9299,0.0],[45.0962,-12.9263,0.0],[45.101,-12.9274,4.4076],[45.1032,-12.9315,2.6901],[45.1029,-12.9357,13.3571],[45.101,-12.9368,9.8386],[45.0999,-12.9468,0.0],[45.0935,-12.954,3.023],[45.0854,-12.9565,4.5153],[45.0782,-12.9615,8.1611],[45.0788,-12.9637,0.0],[45.0818,-12.9626,26.6982]]]]}}