{"type":"Feature","properties":{"GID_1":"MYT.10_1","GID_0":"MYT","country":"Mayotte","province":"Koungou","VARNAME_1":"NA","NL_NAME_1":"NA","TYPE_1":"Chef-lieucanton","ENGTYPE_1":"Commune","CC_1":"10","HASC_1":"NA","ISO_1":"NA","name":"Koungou.province"},
"geometry":{"type": "MultiPolygon","coordinates": [[[[45.1586,-12.762,217.8034],[45.1985,-12.7653,317.0251],[45.2376,-12.7535,6.5519],[45.2287,-12.7476,0.5505],[45.2265,-12.7435,0.0],[45.2221,-12.744,1.0737],[45.219,-12.7412,0.0],[45.2143,-12.7407,0.0],[45.2124,-12.7376,12.8221],[45.2146,-12.7351,0.0],[45.2146,-12.7318,0.0],[45.2126,-12.7318,0.0],[45.2118,-12.734,4.884],[45.209,-12.734,0.2783],[45.2024,-12.729,0.0],[45.2001,-12.7307,1.6174],[45.1976,-12.7296,2.4716],[45.1951,-12.7307,8.4615],[45.184,-12.7262,0.0],[45.1757,-12.7282,8.8311],[45.1651,-12.7176,0.8929],[45.1629,-12.7204,1.2273],[45.1654,-12.7249,8.84],[45.161,-12.7276,2.813],[45.1568,-12.734,2.4126],[45.1521,-12.7338,0.0],[45.1507,-12.7285,4.9812],[45.1468,-12.7274,0.0],[45.1463,-12.7257,0.0],[45.1451,-12.7271,0.2234],[45.1586,-12.762,217.8034]]]]}}