{"type":"Feature","properties":{"GID_1":"MYT.7_1","GID_0":"MYT","country":"Mayotte","province":"Dembeni","VARNAME_1":"NA","NL_NAME_1":"NA","TYPE_1":"Chef-lieucanton","ENGTYPE_1":"Commune","CC_1":"07","HASC_1":"NA","ISO_1":"NA","name":"Dembeni.province"},
"geometry":{"type": "MultiPolygon","coordinates": [[[[45.1933,-12.8854,272.9431],[45.2224,-12.8712,0.0],[45.219,-12.8704,0.0],[45.2135,-12.8721,3.7991],[45.211,-12.8696,10.3021],[45.2129,-12.8629,0.0],[45.2082,-12.8626,0.0],[45.2032,-12.8596,6.6645],[45.2007,-12.8535,5.5008],[45.1976,-12.8546,17.9299],[45.1949,-12.8476,28.9119],[45.1965,-12.8443,0.0],[45.1926,-12.8399,2.5926],[45.1946,-12.8351,22.0369],[45.199,-12.831,0.0],[45.1943,-12.829,2.4613],[45.196,-12.8246,0.0],[45.1988,-12.8222,4.6992],[45.1547,-12.8199,315.7725],[45.1393,-12.8339,91.8649],[45.1453,-12.8373,100.2738],[45.154,-12.874,352.0415],[45.1627,-12.88,599.6957],[45.179,-12.8868,292.7458],[45.1933,-12.8854,272.9431]]],
[[[45.2493,-12.8385,0.0],[45.2429,-12.8382,0.0],[45.2424,-12.8387,0.0],[45.2493,-12.8404,0.0],[45.2493,-12.8385,0.0]]],
[[[45.2346,-12.8362,0.0],[45.2335,-12.8357,0.0],[45.2324,-12.8379,5.5845],[45.2376,-12.8396,0.0],[45.2379,-12.8385,1.3095],[45.2346,-12.8362,0.0]]],
[[[45.2529,-12.8262,0.0],[45.2515,-12.8271,0.0],[45.2538,-12.8287,0.0],[45.2546,-12.8279,0.0],[45.2529,-12.8262,0.0]]]]}}