{"type": "Feature","bbox": [45.0918,-12.889,45.1384,-12.8399],"geometry": {"type": "MultiPolygon","coordinates": [[[[45.1162,-12.8413,0.3731],[45.1135,-12.8435,4.6665],[45.1064,-12.8443,0.0],[45.1024,-12.8429,0.0],[45.0976,-12.8504,1.3561],[45.0935,-12.8501,2.5122],[45.0918,-12.8524,1.5525],[45.0962,-12.8551,0.0],[45.0999,-12.861,0.0],[45.1029,-12.8615,13.6337],[45.1037,-12.8638,0.0],[45.1118,-12.8643,15.2095],[45.1182,-12.8779,2.5234],[45.1235,-12.8829,2.7277],[45.1268,-12.8826,16.1856],[45.1322,-12.889,5.9906],[45.1384,-12.8694,459.4048],[45.1294,-12.8638,399.1255],[45.1216,-12.8399,12.537],[45.1162,-12.8413,0.3731]]]]}
,"properties": {"GID_1": "MYT.16_1","GID_0": "MYT","country": "Mayotte","province": "Sada","VARNAME_1": "NA","NL_NAME_1": "NA","TYPE_1": "Chef-lieucanton","ENGTYPE_1": "Commune","CC_1": "16","HASC_1": "NA","ISO_1": "-","name": "Sada.province","area_km2": 11.782054,"hist_schema_id": "Elevation0-9000","hist_area_km2": {"0": 1.095518,"25": 1.46758,"50": 1.178199,"75": 1.343578,"100": 1.157545,"125": 0.826819,"150": 0.971512,"175": 0.702795,"200": 0.723465,"225": 0.620105,"250": 0.330724,"275": 0.248041,"300": 0.248041,"325": 0.227368,"350": 0.06201,"375": 0.165358,"400": 0.082679,"425": 0.124019,"450": 0.103349,"475": 0.06201,"500": 0.04134}}}