{"type":"Feature","properties":{"GID_1":"MYT.5_1","GID_0":"MYT","country":"Mayotte","province":"Chiconi","VARNAME_1":"NA","NL_NAME_1":"NA","TYPE_1":"Chef-lieucanton","ENGTYPE_1":"Commune","CC_1":"05","HASC_1":"NA","ISO_1":"NA","name":"Chiconi.province"},
"geometry":{"type": "MultiPolygon","coordinates": [[[[45.1162,-12.8413,0.3731],[45.1216,-12.8399,12.537],[45.1257,-12.8307,133.1059],[45.1223,-12.8077,77.5298],[45.0996,-12.8016,0.0],[45.0993,-12.8076,0.0],[45.1015,-12.8112,15.7664],[45.1037,-12.8112,40.4283],[45.1057,-12.8157,1.7308],[45.1051,-12.8188,0.7882],[45.1024,-12.8212,0.0],[45.1035,-12.8235,3.4469],[45.1004,-12.8346,0.0],[45.1126,-12.8371,2.1273],[45.116,-12.839,2.2559],[45.1162,-12.8413,0.3731]]]]}}